#cP2018 10  7  0  0  0.00000000     192 ORBIT IGS14 HLM  IGS
## 2022      0.00000000   900.00000000 58398 0.0000000000000
+   31   G01G02G03G05G06G07G08G09G10G11G12G13G14G15G16G17G18
+        G19G20G21G22G23G24G25G26G27G28G29G30G31G32  0  0  0
+          0  0  0  0  0  0  0  0  0  0  0  0  0  0  0  0  0
+          0  0  0  0  0  0  0  0  0  0  0  0  0  0  0  0  0
+          0  0  0  0  0  0  0  0  0  0  0  0  0  0  0  0  0
++         3  3  3  3  3  3  3  3  3  3  3  4  4  5  3  3  3
++         3  4  4  4  4  3  3  3  0  3  4  3  4  4  0  0  0
++         0  0  0  0  0  0  0  0  0  0  0  0  0  0  0  0  0
++         0  0  0  0  0  0  0  0  0  0  0  0  0  0  0  0  0
++         0  0  0  0  0  0  0  0  0  0  0  0  0  0  0  0  0
%c G  cc GPS ccc cccc cccc cccc cccc ccccc ccccc ccccc ccccc
%c cc cc ccc ccc cccc cccc cccc cccc ccccc ccccc ccccc ccccc
%f  1.2500000  1.025000000  0.00000000000  0.000000000000000
%f  0.0000000  0.000000000  0.00000000000  0.000000000000000
%i    0    0    0    0      0      0      0      0         0
%i    0    0    0    0      0      0      0      0         0
/* ULTRA ORBIT COMBINATION 20221_00 (58399.000) FROM:       
/* cou emu esu gfu ngu siu usu whu                          
/* REFERENCED TO emu CLOCK AND TO WEIGHTED MEAN POLE:       
/* PCV:IGS14_2017 OL/AL:FES2004  NONE     Y  ORB:CMB CLK:CMB
*  2018 10  8  0  0  0.00000000
PG01 -16839.597875  -3777.452134  20104.822559    -97.568387 11  9  9 195  P   P
PG02  15140.595126  21396.297319  -4381.428876    -23.628739  9  3  8 225  P   P
PG03 -19362.598411   7732.466664  16378.387563    146.150107  9 11  5 229  P   P
PG05  10670.558712  11704.231367 -21420.573107     -1.186480 10  8  4 251  P   P
PG06   4950.939234  24566.603575   8800.745912    352.939933  3  6  7 208  P   P
PG07 -10373.721355  12493.160878 -20688.687892    110.738695  9  8  7 240  P   P
PG08 -25171.679108  -6103.242964  -6202.387923   -117.791759 10 10 10 261  P   P
PG09 -21677.947588   7847.462890 -13236.549724    501.944860  8  8  9 218  P   P
PG10   9446.051613 -23402.466136   8027.808760    176.488932  6  4 10 200  P   P
PG11 -22103.679735  -5412.291931  12973.254409   -711.844951 11  7  9 253  P   P
PG12  18062.199230  -2319.856468  19078.479532    301.427611  6  8  5 245  P   P
PG13  20059.132216  12673.714195 -12068.498076    -87.560929 11  8  7 212  P   P
PG14  -6013.357765 -15755.329783  20862.205577    -96.865658 10  8  5 214  P   P
PG15  26575.995460   2044.382909  -2779.151969   -343.735452  9 10 11 216  P   P
PG16  -7405.183269 -13570.931501 -21693.201245      5.344328  5 10  9 214  P   P
PG17  -4904.974952  14265.635315  22247.548230    -46.853794 11  7  9 229  P   P
PG18 -18137.497337 -12928.086235  14104.587311     65.768542 11  9 10 222  P   P
PG19   6240.116550  15158.370839  20573.988382   -395.646725 12  8  7 225  P   P
PG20  14151.973989 -22285.885550  -2433.853756    516.963047 10  9 12 214  P   P
PG21   6513.882331 -16686.945287 -18833.496802   -324.907869  7 12 11 240  P   P
PG22 -17582.516566   -235.520122  20130.971350   -540.627089  8 12  7 255  P   P
PG23 -26208.821017   1745.070275  -4930.307097   -209.206260  8  9 10 220  P   P
PG24  18472.172337   7848.053444  17419.670521    -56.434740  9 11  8 211  P   P
PG25  19112.631749 -15002.446040  10256.707029   -658.398306  5  7  5 211  P   P
PG26    -12.573036 -20856.595034 -16367.267631      2.657763 10  8  9 240  P   P
PG27 -18310.417707 -11904.826791 -15382.094765 999999.999999               P   P
PG28 -12657.726235  22457.266954   7133.657377    748.580767  9  7  6 262  P   P
PG29  22516.569196  -5387.811878 -13041.539351    361.474126  8 10  9 215  P   P
PG30  -2896.226949  21634.148419 -14994.758876     13.407883  9  6  6 189  P   P
PG31  -5870.689240 -24866.624555   6412.845044     88.312615 10  9 10 224  P   P
PG32   3051.971851 -15074.616132  21690.473581   -400.216689  8  4  5 194  P   P
*  2018 10  8  0 15  0.00000000
PG01 -17767.334865  -5827.047224  18811.666750    -97.572740 11  8  9 199  P   P
PG02  15113.116698  21878.752440  -1583.765320    -23.638491  5  5  9 223  P   P
PG03 -18412.290719   5985.682600  18116.110959    146.154404  9 11  4 226  P   P
PG05   9349.771852  13707.984004 -20819.128231     -1.186116  8  9  9 253  P   P
PG06   4250.217215  23635.031391  11357.034401    352.934946  7  2  4 207  P   P
PG07 -11522.665876  10314.627255 -21306.992469    110.732637 10  7  8 237  P   P
PG08 -24299.475722  -6272.542878  -8891.513720   -117.792899 10 10  6 263  P   P
PG09 -23043.109497   7563.944689 -10879.121919    501.942614  9  6 11 225  P   P
PG10  10072.410908 -23903.950515   5298.289253    176.486158  6  3 10 200  P   P
PG11 -23017.913219  -6596.310500  10716.298147   -711.841982 11  6  9 254  P   P
PG12  16763.278360   -427.284833  20360.289739    301.425089 10  9  5 247  P   P
PG13  18556.717579  12594.487751 -14357.067690    -87.560157 13  8 10 206  P   P
PG14  -3664.290489 -15499.889059  21580.895658    -96.865412 10  3  5 218  P   P
PG15  26141.955862   2366.186266  -5494.302642   -343.734433 11 11 11 224  P   P
PG16  -5876.886104 -15427.052607 -20862.961186      5.342609  5 10  6 207  P   P
PG17  -7315.478448  13978.567975  21742.534824    -46.849667  7  6 10 231  P   P
PG18 -18703.927263 -14391.687630  11857.029679     65.772346 11  9  6 214  P   P
PG19   3799.120555  14850.840803  21377.876330   -395.643522  9  6  7 222  P   P
PG20  14271.750706 -21749.362217  -5185.708351    516.963572 10 10 12 214  P   P
PG21   7814.045875 -14690.028439 -19920.451242   -324.902344  7 11 10 237  P   P
PG22 -16528.779198  -2297.274204  20891.508301   -540.636563 10 12  8 258  P   P
PG23 -26634.000627   1459.209756  -2170.956367   -209.205482  7  3  8 225  P   P
PG24  19251.896389   9599.259835  15647.046216    -56.435205 10 11  9 222  P   P
PG25  18548.320372 -13762.986283  12715.810911   -658.403424  8  7  5 207  P   P
PG26   1089.954560 -22248.449090 -14362.911112      2.668012 10  7  9 244  P   P
PG27 -16463.262613 -11933.916932 -17312.462915 999999.999999               P   P
PG28 -13149.466957  22810.017776   4332.370524    748.582601  9  7  9 261  P   P
PG29  23834.904314  -5077.706185 -10588.362716    361.467344  8  9  9 216  P   P
PG30  -3845.608299  20045.409485 -16883.983256     13.402996  8  7  5 188  P   P
PG31  -5247.882355 -24171.220440   9104.597260     88.310244 11  6  6 226  P   P
PG32   5500.578839 -14923.456819  21299.867065   -400.205647  7  4  6 188  P   P
*  2018 10  8  0 30  0.00000000
PG01 -18720.458506  -7677.313502  17193.457519    -97.577094 11  8  9 201  P   P
PG02  14938.375692  22094.906666   1240.976148    -23.648243  4  6  9 220  P   P
PG03 -17465.266246   4036.291809  19540.490323    146.158705  9 12  2 224  P   P
PG05   8171.914379  15700.403670 -19861.958818     -1.185747  9  9  9 252  P   P
PG06   3358.925778  22502.691434  13717.956827    352.929964  7  2  4 207  P   P
PG07 -12802.349791   8157.622749 -21548.910294    110.726587 10  7  8 236  P   P
PG08 -23141.857200  -6494.918999 -11428.704000   -117.794044 10 11  7 265  P   P
PG09 -24144.292886   7345.035216  -8334.899457    501.940369 10  5 10 229  P   P
PG10  10516.881419 -24162.741293   2476.703100    176.483385  6  3 10 201  P   P
PG11 -23762.142739  -7581.779734   8267.909173   -711.839014 11  7  9 256  P   P
PG12  15501.827518   1639.243822  21284.418409    301.422571  9  8  6 248  P   P
PG13  16809.881374  12567.657323 -16400.465811    -87.559393 13  8  9 204  P   P
PG14  -1244.055125 -15365.276042  21938.976856    -96.865166 10  3  5 221  P   P
PG15  25428.039221   2734.010230  -8117.592374   -343.733419 12 11 11 225  P   P
PG16  -4516.592196 -17274.906524 -19675.524926      5.340884  6 10  6 203  P   P
PG17  -9664.144436  13831.663161  20875.908644    -46.845540  7  6 10 233  P   P
PG18 -19198.348396 -15595.316528   9401.904939     65.776150 11  9  6 211  P   P
PG19   1275.019042  14670.200476  21803.180404   -395.640319 10  6  7 222  P   P
PG20  14294.525628 -20939.505687  -7847.973482    516.964096 10 11 12 215  P   P
PG21   9267.830726 -12666.190055 -20640.170954   -324.896824  9 11  9 236  P   P
PG22 -15544.943341  -4464.039359  21299.678667   -540.646035  9 12  9 258  P   P
PG23 -26761.474339   1191.347311    624.954405   -209.204701  7  2  8 226  P   P
PG24  19999.741096  11126.747598  13606.366292    -56.435665 10 11 10 231  P   P
PG25  17917.222635 -12261.749427  14951.205731   -658.408544  8  8  4 205  P   P
PG26   2005.660291 -23482.877583 -12109.816344      2.678259  9  7  9 246  P   P
PG27 -14418.595538 -12067.839362 -18949.723829 999999.999999               P   P
PG28 -13443.513826  22924.859738   1457.596766    748.584444 10  8  9 261  P   P
PG29  24880.412085  -4857.413481  -7953.170269    361.460560  8  9 10 217  P   P
PG30  -4961.877946  18330.507189 -18480.324134     13.398105  8  7  5 192  P   P
PG31  -4448.657758 -23247.046210  11636.019071     88.307868 11  7  7 226  P   P
PG32   7889.929335 -14898.025751  20543.694509   -400.194603  7  4  7 182  P   P
EOF
